start=new Date('2023-02-14T00:00:00.000Z').valueOf();
sats=[{"RCS_SIZE":"LARGE","MEAN_MOTION_DDOT":"0.0000000000000","MEAN_MOTION":"15.08848092","LAUNCH_DATE":"2022-04-21","OBJECT_TYPE":"PAYLOAD","SITE":"AFETR","FILE":"3789366","RA_OF_ASC_NODE":"98.2532","ECCENTRICITY":"0.00012380","BSTAR":"0.00024233000000","TLE_LINE2":"2 52283  53.2145  98.2532 0001238  98.8914 261.2218 15.08848092 45246","ARG_OF_PERICENTER":"98.8914","PERIOD":"95.437","OBJECT_NAME":"STARLINK-3789","ELEMENT_SET_NO":"999","MEAN_MOTION_DOT":"0.00003572","DECAY_DATE":null,"CLASSIFICATION_TYPE":"U","MEAN_ELEMENT_THEORY":"SGP4","PERIAPSIS":"538.864","COUNTRY_CODE":"US","TIME_SYSTEM":"UTC","MEAN_ANOMALY":"261.2218","EPHEMERIS_TYPE":"0","CENTER_NAME":"EARTH","SEMIMAJOR_AXIS":"6917.856","TLE_LINE1":"1 52283U 22041Y   23044.41199217  .00003572  00000-0  24233-3 0  9990","GP_ID":"225326493","NORAD_CAT_ID":"52283","REF_FRAME":"TEME","EPOCH":"2023-02-13T09:53:16.123488","APOAPSIS":"540.577","REV_AT_EPOCH":"4524","OBJECT_ID":"2022-041Y","INCLINATION":"53.2145"},{"OBJECT_ID":"2022-041Z","INCLINATION":"53.2176","REF_FRAME":"TEME","NORAD_CAT_ID":"52284","REV_AT_EPOCH":"4660","APOAPSIS":"540.573","EPOCH":"2023-02-13T10:58:11.454528","EPHEMERIS_TYPE":"0","MEAN_ANOMALY":"276.6987","GP_ID":"225335052","TLE_LINE1":"1 52284U 22041Z   23044.45707702 -.00000385  00000-0 -61224-5 0  9993","CENTER_NAME":"EARTH","SEMIMAJOR_AXIS":"6917.865","DECAY_DATE":null,"COUNTRY_CODE":"US","TIME_SYSTEM":"UTC","PERIAPSIS":"538.887","MEAN_ELEMENT_THEORY":"SGP4","CLASSIFICATION_TYPE":"U","PERIOD":"95.437","ARG_OF_PERICENTER":"83.4144","TLE_LINE2":"2 52284  53.2176  88.0441 0001218  83.4144 276.6987 15.08845032 46605","MEAN_MOTION_DOT":"-0.00000385","ELEMENT_SET_NO":"999","OBJECT_NAME":"STARLINK-3561","RA_OF_ASC_NODE":"88.0441","BSTAR":"-0.00000612240000","ECCENTRICITY":"0.00012180","LAUNCH_DATE":"2022-04-21","OBJECT_TYPE":"PAYLOAD","RCS_SIZE":"LARGE","MEAN_MOTION":"15.08845032","MEAN_MOTION_DDOT":"0.0000000000000","FILE":"3789649","SITE":"AFETR"},{"CLASSIFICATION_TYPE":"U","MEAN_ELEMENT_THEORY":"SGP4","PERIAPSIS":"537.056","TIME_SYSTEM":"UTC","COUNTRY_CODE":"US","DECAY_DATE":null,"OBJECT_NAME":"STARLINK-3775","MEAN_MOTION_DOT":"-0.00000638","ELEMENT_SET_NO":"999","TLE_LINE2":"2 52285  53.2156  97.6761 0003921  11.2254 348.8825 15.08832374 45268","ARG_OF_PERICENTER":"11.2254","PERIOD":"95.438","ECCENTRICITY":"0.00039210","BSTAR":"-0.00002192200000","RA_OF_ASC_NODE":"97.6761","FILE":"3789366","SITE":"AFETR","RCS_SIZE":"LARGE","MEAN_MOTION":"15.08832374","MEAN_MOTION_DDOT":"0.0000000000000","LAUNCH_DATE":"2022-04-21","OBJECT_TYPE":"PAYLOAD","INCLINATION":"53.2156","OBJECT_ID":"2022-041AA","EPOCH":"2023-02-13T12:58:43.695264","REV_AT_EPOCH":"4526","APOAPSIS":"542.481","NORAD_CAT_ID":"52285","REF_FRAME":"TEME","CENTER_NAME":"EARTH","SEMIMAJOR_AXIS":"6917.904","TLE_LINE1":"1 52285U 22041AA  23044.54078351 -.00000638  00000-0 -21922-4 0  9996","GP_ID":"225325015","MEAN_ANOMALY":"348.8825","EPHEMERIS_TYPE":"0"},{"INCLINATION":"53.2180","OBJECT_ID":"2022-041AB","REF_FRAME":"TEME","NORAD_CAT_ID":"52286","APOAPSIS":"540.859","REV_AT_EPOCH":"4537","EPOCH":"2023-02-13T09:12:12.142368","EPHEMERIS_TYPE":"0","MEAN_ANOMALY":"268.3714","GP_ID":"225326265","TLE_LINE1":"1 52286U 22041AB  23044.38347387  .00002757  00000-0  19129-3 0  9994","CENTER_NAME":"EARTH","SEMIMAJOR_AXIS":"6917.890","DECAY_DATE":null,"COUNTRY_CODE":"US","TIME_SYSTEM":"UTC","MEAN_ELEMENT_THEORY":"SGP4","PERIAPSIS":"538.651","CLASSIFICATION_TYPE":"U","PERIOD":"95.438","ARG_OF_PERICENTER":"91.7461","TLE_LINE2":"2 52286  53.2180  88.3732 0001596  91.7461 268.3714 15.08836951 45370","MEAN_MOTION_DOT":"0.00002757","ELEMENT_SET_NO":"999","OBJECT_NAME":"STARLINK-3802","RA_OF_ASC_NODE":"88.3732","BSTAR":"0.00019129000000","ECCENTRICITY":"0.00015960","OBJECT_TYPE":"PAYLOAD","LAUNCH_DATE":"2022-04-21","MEAN_MOTION_DDOT":"0.0000000000000","RCS_SIZE":"MEDIUM","MEAN_MOTION":"15.08836951","SITE":"AFETR","FILE":"3789366"},{"ARG_OF_PERICENTER":"90.9574","PERIOD":"95.437","TLE_LINE2":"2 52287  53.2182  98.3015 0001349  90.9574 269.1573 15.08843599 45244","MEAN_MOTION_DOT":"0.00002679","ELEMENT_SET_NO":"999","OBJECT_NAME":"STARLINK-3822","DECAY_DATE":null,"COUNTRY_CODE":"US","TIME_SYSTEM":"UTC","CLASSIFICATION_TYPE":"U","MEAN_ELEMENT_THEORY":"SGP4","PERIAPSIS":"538.801","LAUNCH_DATE":"2022-04-21","OBJECT_TYPE":"PAYLOAD","MEAN_MOTION":"15.08843599","RCS_SIZE":"LARGE","MEAN_MOTION_DDOT":"0.0000000000000","FILE":"3789366","SITE":"AFETR","RA_OF_ASC_NODE":"98.3015","BSTAR":"0.00018635000000","ECCENTRICITY":"0.00013490","REF_FRAME":"TEME","NORAD_CAT_ID":"52287","APOAPSIS":"540.668","REV_AT_EPOCH":"4524","EPOCH":"2023-02-13T09:37:22.762560","INCLINATION":"53.2182","OBJECT_ID":"2022-041AC","EPHEMERIS_TYPE":"0","MEAN_ANOMALY":"269.1573","TLE_LINE1":"1 52287U 22041AC  23044.40095790  .00002679  00000-0  18635-3 0  9990","GP_ID":"225325994","CENTER_NAME":"EARTH","SEMIMAJOR_AXIS":"6917.869"},{"RA_OF_ASC_NODE":"87.7995","ECCENTRICITY":"0.00016800","BSTAR":"0.00014506000000","RCS_SIZE":"LARGE","MEAN_MOTION":"15.08840615","MEAN_MOTION_DDOT":"0.0000000000000","OBJECT_TYPE":"PAYLOAD","LAUNCH_DATE":"2022-04-21","SITE":"AFETR","FILE":"3788988","DECAY_DATE":null,"PERIAPSIS":"538.581","MEAN_ELEMENT_THEORY":"SGP4","CLASSIFICATION_TYPE":"U","COUNTRY_CODE":"US","TIME_SYSTEM":"UTC","TLE_LINE2":"2 52288  53.2152  87.7995 0001680  78.9904 281.1277 15.08840615 46615","PERIOD":"95.438","ARG_OF_PERICENTER":"78.9904","OBJECT_NAME":"STARLINK-3776","MEAN_MOTION_DOT":"0.00002021","ELEMENT_SET_NO":"999","MEAN_ANOMALY":"281.1277","EPHEMERIS_TYPE":"0","CENTER_NAME":"EARTH","SEMIMAJOR_AXIS":"6917.879","GP_ID":"225292796","TLE_LINE1":"1 52288U 22041AD  23044.51228002  .00002021  00000-0  14506-3 0  9991","INCLINATION":"53.2152","OBJECT_ID":"2022-041AD","NORAD_CAT_ID":"52288","REF_FRAME":"TEME","EPOCH":"2023-02-13T12:17:40.993728","APOAPSIS":"540.906","REV_AT_EPOCH":"4661"},{"EPHEMERIS_TYPE":"0","MEAN_ANOMALY":"274.7380","GP_ID":"225325514","TLE_LINE1":"1 52289U 22041AE  23044.39451567  .00004777  00000-0  31792-3 0  9998","SEMIMAJOR_AXIS":"6917.844","CENTER_NAME":"EARTH","REF_FRAME":"TEME","NORAD_CAT_ID":"52289","REV_AT_EPOCH":"4537","APOAPSIS":"541.117","EPOCH":"2023-02-13T09:28:06.153888","INCLINATION":"53.2180","OBJECT_ID":"2022-041AE","LAUNCH_DATE":"2022-04-21","OBJECT_TYPE":"PAYLOAD","MEAN_MOTION_DDOT":"0.0000000000000","RCS_SIZE":"LARGE","MEAN_MOTION":"15.08851876","SITE":"AFETR","FILE":"3789366","RA_OF_ASC_NODE":"88.3185","BSTAR":"0.00031792000000","ECCENTRICITY":"0.00020350","PERIOD":"95.437","ARG_OF_PERICENTER":"85.3845","TLE_LINE2":"2 52289  53.2180  88.3185 0002035  85.3845 274.7380 15.08851876 45372","MEAN_MOTION_DOT":"0.00004777","ELEMENT_SET_NO":"999","OBJECT_NAME":"STARLINK-3751","DECAY_DATE":null,"TIME_SYSTEM":"UTC","COUNTRY_CODE":"US","PERIAPSIS":"538.301","MEAN_ELEMENT_THEORY":"SGP4","CLASSIFICATION_TYPE":"U"},{"OBJECT_ID":"2022-041AF","INCLINATION":"53.2168","APOAPSIS":"539.980","REV_AT_EPOCH":"4665","EPOCH":"2023-02-13T20:09:18.912672","REF_FRAME":"TEME","NORAD_CAT_ID":"52290","GP_ID":"225335126","TLE_LINE1":"1 52290U 22041AF  23044.83980223  .00008539  00000-0  55374-3 0  9997","SEMIMAJOR_AXIS":"6917.840","CENTER_NAME":"EARTH","EPHEMERIS_TYPE":"0","MEAN_ANOMALY":"282.0493","COUNTRY_CODE":"US","TIME_SYSTEM":"UTC","MEAN_ELEMENT_THEORY":"SGP4","PERIAPSIS":"539.430","CLASSIFICATION_TYPE":"U","DECAY_DATE":null,"MEAN_MOTION_DOT":"0.00008539","ELEMENT_SET_NO":"999","OBJECT_NAME":"STARLINK-3772","PERIOD":"95.437","ARG_OF_PERICENTER":"78.0544","TLE_LINE2":"2 52290  53.2168  86.3890 0000397  78.0544 282.0493 15.08853238 46658","BSTAR":"0.00055374000000","ECCENTRICITY":"0.00003970","RA_OF_ASC_NODE":"86.3890","FILE":"3789654","SITE":"AFETR","LAUNCH_DATE":"2022-04-21","OBJECT_TYPE":"PAYLOAD","MEAN_MOTION":"15.08853238","RCS_SIZE":"LARGE","MEAN_MOTION_DDOT":"0.0000000000000"},{"OBJECT_NAME":"STARLINK-3773","MEAN_MOTION_DOT":"0.00001837","ELEMENT_SET_NO":"999","TLE_LINE2":"2 52291  53.2185  88.3493 0001200  86.2949 273.8180 15.08843143 45376","ARG_OF_PERICENTER":"86.2949","PERIOD":"95.437","CLASSIFICATION_TYPE":"U","MEAN_ELEMENT_THEORY":"SGP4","PERIAPSIS":"538.906","COUNTRY_CODE":"US","TIME_SYSTEM":"UTC","DECAY_DATE":null,"FILE":"3789366","SITE":"AFETR","MEAN_MOTION":"15.08843143","RCS_SIZE":"LARGE","MEAN_MOTION_DDOT":"0.0000000000000","LAUNCH_DATE":"2022-04-21","OBJECT_TYPE":"PAYLOAD","ECCENTRICITY":"0.00012000","BSTAR":"0.00013344000000","RA_OF_ASC_NODE":"88.3493","EPOCH":"2023-02-13T09:17:30.452064","REV_AT_EPOCH":"4537","APOAPSIS":"540.566","NORAD_CAT_ID":"52291","REF_FRAME":"TEME","INCLINATION":"53.2185","OBJECT_ID":"2022-041AG","SEMIMAJOR_AXIS":"6917.871","CENTER_NAME":"EARTH","TLE_LINE1":"1 52291U 22041AG  23044.38715801  .00001837  00000-0  13344-3 0  9991","GP_ID":"225326494","MEAN_ANOMALY":"273.8180","EPHEMERIS_TYPE":"0"},{"DECAY_DATE":null,"MEAN_ELEMENT_THEORY":"SGP4","PERIAPSIS":"538.789","CLASSIFICATION_TYPE":"U","TIME_SYSTEM":"UTC","COUNTRY_CODE":"US","TLE_LINE2":"2 52292  53.2151  86.3794 0001373  82.0410 278.0738 15.08842009 46669","PERIOD":"95.437","ARG_OF_PERICENTER":"82.0410","OBJECT_NAME":"STARLINK-3753","MEAN_MOTION_DOT":"0.00004818","ELEMENT_SET_NO":"999","RA_OF_ASC_NODE":"86.3794","ECCENTRICITY":"0.00013730","BSTAR":"0.00032056000000","RCS_SIZE":"LARGE","MEAN_MOTION_DDOT":"0.0000000000000","MEAN_MOTION":"15.08842009","OBJECT_TYPE":"PAYLOAD","LAUNCH_DATE":"2022-04-21","SITE":"AFETR","FILE":"3789654","INCLINATION":"53.2151","OBJECT_ID":"2022-041AH","NORAD_CAT_ID":"52292","REF_FRAME":"TEME","EPOCH":"2023-02-13T19:53:24.736128","REV_AT_EPOCH":"4666","APOAPSIS":"540.689","MEAN_ANOMALY":"278.0738","EPHEMERIS_TYPE":"0","CENTER_NAME":"EARTH","SEMIMAJOR_AXIS":"6917.874","GP_ID":"225334848","TLE_LINE1":"1 52292U 22041AH  23044.82875852  .00004818  00000-0  32056-3 0  9997"}];
